{
  "type": "FeatureCollection",
  "features": [
    {
      "type": "Feature",
      "properties": {
        "norad_id": 29816,
        "name": "FENGYUN 1C DEB",
        "group": "fengyun-1c-debris",
        "lat": -72.58795133848703,
        "lon": -2.845657436640886,
        "alt_km": 718.200423118481,
        "timestamp": "2025-12-13T10:41:26.037504+00:00",
        "meta_object_name": "FENGYUN 1C DEB",
        "meta_object_id": "1999-025DJ",
        "meta_epoch": "2025-12-12T13:50:12.866784",
        "meta_mean_motion": 14.44298141,
        "meta_eccentricity": 0.02377174,
        "meta_inclination": 98.9932,
        "meta_ra_of_asc_node": 206.5647,
        "meta_arg_of_pericenter": 177.6036,
        "meta_mean_anomaly": 239.448,
        "meta_ephemeris_type": 0,
        "meta_classification_type": "U",
        "meta_norad_cat_id": 29816,
        "meta_element_set_no": 999,
        "meta_rev_at_epoch": 98185,
        "meta_bstar": 0.0016694309,
        "meta_mean_motion_dot": 8.067e-05,
        "meta_mean_motion_ddot": 0,
        "tle_line1": "1 29816U 99025DJ  25346.57653781  .00008067  00000+0  16694-2 0  9991",
        "tle_line2": "2 29816  98.9932 206.5647 0237717 177.6036 239.4480 14.44298141981854"
      },
      "geometry": {
        "type": "Point",
        "coordinates": [
          -2.845657436640886,
          -72.58795133848703
        ]
      }
    },
    {
      "type": "Feature",
      "properties": {
        "norad_id": 29817,
        "name": "FENGYUN 1C DEB",
        "group": "fengyun-1c-debris",
        "lat": 62.764889096265705,
        "lon": 173.6258169302608,
        "alt_km": 840.5774743316588,
        "timestamp": "2025-12-13T10:41:26.037514+00:00",
        "meta_object_name": "FENGYUN 1C DEB",
        "meta_object_id": "1999-025DK",
        "meta_epoch": "2025-12-12T22:30:44.614368",
        "meta_mean_motion": 14.14252731,
        "meta_eccentricity": 0.00122694,
        "meta_inclination": 98.5576,
        "meta_ra_of_asc_node": 336.1294,
        "meta_arg_of_pericenter": 15.0983,
        "meta_mean_anomaly": 38.6711,
        "meta_ephemeris_type": 0,
        "meta_classification_type": "U",
        "meta_norad_cat_id": 29817,
        "meta_element_set_no": 999,
        "meta_rev_at_epoch": 97398,
        "meta_bstar": 0.0004837224,
        "meta_mean_motion_dot": 8.82e-06,
        "meta_mean_motion_ddot": 0,
        "tle_line1": "1 29817U 99025DK  25346.93801637  .00000882  00000+0  48372-3 0  9993",
        "tle_line2": "2 29817  98.5576 336.1294 0012269  15.0983  38.6711 14.14252731973985"
      },
      "geometry": {
        "type": "Point",
        "coordinates": [
          173.6258169302608,
          62.764889096265705
        ]
      }
    },
    {
      "type": "Feature",
      "properties": {
        "norad_id": 29818,
        "name": "FENGYUN 1C DEB",
        "group": "fengyun-1c-debris",
        "lat": -6.564408975271711,
        "lon": 43.71985183849608,
        "alt_km": 961.7213098392967,
        "timestamp": "2025-12-13T10:41:26.037524+00:00",
        "meta_object_name": "FENGYUN 1C DEB",
        "meta_object_id": "1999-025DL",
        "meta_epoch": "2025-12-12T21:53:37.015008",
        "meta_mean_motion": 14.04501011,
        "meta_eccentricity": 0.0115268,
        "meta_inclination": 98.7211,
        "meta_ra_of_asc_node": 224.2197,
        "meta_arg_of_pericenter": 25.3784,
        "meta_mean_anomaly": 346.2463,
        "meta_ephemeris_type": 0,
        "meta_classification_type": "U",
        "meta_norad_cat_id": 29818,
        "meta_element_set_no": 999,
        "meta_rev_at_epoch": 96812,
        "meta_bstar": 0.00022587089,
        "meta_mean_motion_dot": 3.4e-06,
        "meta_mean_motion_ddot": 0,
        "tle_line1": "1 29818U 99025DL  25346.91223397  .00000340  00000+0  22587-3 0  9992",
        "tle_line2": "2 29818  98.7211 224.2197 0115268  25.3784 346.2463 14.04501011968128"
      },
      "geometry": {
        "type": "Point",
        "coordinates": [
          43.71985183849608,
          -6.564408975271711
        ]
      }
    },
    {
      "type": "Feature",
      "properties": {
        "norad_id": 29819,
        "name": "FENGYUN 1C DEB",
        "group": "fengyun-1c-debris",
        "lat": -67.42406957179308,
        "lon": -7.147171218572794,
        "alt_km": 988.9552967230429,
        "timestamp": "2025-12-13T10:41:26.037535+00:00",
        "meta_object_name": "FENGYUN 1C DEB",
        "meta_object_id": "1999-025DM",
        "meta_epoch": "2025-12-12T21:34:38.637984",
        "meta_mean_motion": 14.02196402,
        "meta_eccentricity": 0.01914846,
        "meta_inclination": 98.7322,
        "meta_ra_of_asc_node": 330.6343,
        "meta_arg_of_pericenter": 66.6332,
        "meta_mean_anomaly": 349.3425,
        "meta_ephemeris_type": 0,
        "meta_classification_type": "U",
        "meta_norad_cat_id": 29819,
        "meta_element_set_no": 999,
        "meta_rev_at_epoch": 96622,
        "meta_bstar": 0.00061049665,
        "meta_mean_motion_dot": 1.057e-05,
        "meta_mean_motion_ddot": 0,
        "tle_line1": "1 29819U 99025DM  25346.89905831  .00001057  00000+0  61050-3 0  9994",
        "tle_line2": "2 29819  98.7322 330.6343 0191484  66.6332 349.3425 14.02196402966221"
      },
      "geometry": {
        "type": "Point",
        "coordinates": [
          -7.147171218572794,
          -67.42406957179308
        ]
      }
    },
    {
      "type": "Feature",
      "properties": {
        "norad_id": 29820,
        "name": "FENGYUN 1C DEB",
        "group": "fengyun-1c-debris",
        "lat": -80.6955088091358,
        "lon": 66.09012667250256,
        "alt_km": 850.2312901742844,
        "timestamp": "2025-12-13T10:41:26.037545+00:00",
        "meta_object_name": "FENGYUN 1C DEB",
        "meta_object_id": "1999-025DN",
        "meta_epoch": "2025-12-12T23:26:36.904992",
        "meta_mean_motion": 14.02604937,
        "meta_eccentricity": 0.00721035,
        "meta_inclination": 98.8318,
        "meta_ra_of_asc_node": 354.0212,
        "meta_arg_of_pericenter": 237.0738,
        "meta_mean_anomaly": 190.4041,
        "meta_ephemeris_type": 0,
        "meta_classification_type": "U",
        "meta_norad_cat_id": 29820,
        "meta_element_set_no": 999,
        "meta_rev_at_epoch": 96563,
        "meta_bstar": 0.00082028354,
        "meta_mean_motion_dot": 1.251e-05,
        "meta_mean_motion_ddot": 0,
        "tle_line1": "1 29820U 99025DN  25346.97681603  .00001251  00000+0  82028-3 0  9997",
        "tle_line2": "2 29820  98.8318 354.0212 0072103 237.0738 190.4041 14.02604937965634"
      },
      "geometry": {
        "type": "Point",
        "coordinates": [
          66.09012667250256,
          -80.6955088091358
        ]
      }
    },
    {
      "type": "Feature",
      "properties": {
        "norad_id": 29821,
        "name": "FENGYUN 1C DEB",
        "group": "fengyun-1c-debris",
        "lat": -19.7022997335465,
        "lon": 45.63995463840902,
        "alt_km": 1060.2407979523277,
        "timestamp": "2025-12-13T10:41:26.037555+00:00",
        "meta_object_name": "FENGYUN 1C DEB",
        "meta_object_id": "1999-025DP",
        "meta_epoch": "2025-12-12T16:38:24.779904",
        "meta_mean_motion": 14.11067993,
        "meta_eccentricity": 0.03763662,
        "meta_inclination": 98.874,
        "meta_ra_of_asc_node": 41.6878,
        "meta_arg_of_pericenter": 120.8345,
        "meta_mean_anomaly": 3.8244,
        "meta_ephemeris_type": 0,
        "meta_classification_type": "U",
        "meta_norad_cat_id": 29821,
        "meta_element_set_no": 999,
        "meta_rev_at_epoch": 96510,
        "meta_bstar": 0.0011640001,
        "meta_mean_motion_dot": 4.04e-05,
        "meta_mean_motion_ddot": 0,
        "tle_line1": "1 29821U 99025DP  25346.69334236  .00004040  00000+0  11640-2 0  9994",
        "tle_line2": "2 29821  98.8740  41.6878 0376366 120.8345   3.8244 14.11067993965101"
      },
      "geometry": {
        "type": "Point",
        "coordinates": [
          45.63995463840902,
          -19.7022997335465
        ]
      }
    },
    {
      "type": "Feature",
      "properties": {
        "norad_id": 29827,
        "name": "FENGYUN 1C DEB",
        "group": "fengyun-1c-debris",
        "lat": -6.804687568819185,
        "lon": -20.338759787964925,
        "alt_km": 808.2606564878533,
        "timestamp": "2025-12-13T10:41:26.037565+00:00",
        "meta_object_name": "FENGYUN 1C DEB",
        "meta_object_id": "1999-025DV",
        "meta_epoch": "2025-12-12T23:12:43.768800",
        "meta_mean_motion": 14.21687985,
        "meta_eccentricity": 0.0025015,
        "meta_inclination": 98.6023,
        "meta_ra_of_asc_node": 338.1601,
        "meta_arg_of_pericenter": 321.8122,
        "meta_mean_anomaly": 104.8463,
        "meta_ephemeris_type": 0,
        "meta_classification_type": "U",
        "meta_norad_cat_id": 29827,
        "meta_element_set_no": 999,
        "meta_rev_at_epoch": 97866,
        "meta_bstar": 0.00051440272,
        "meta_mean_motion_dot": 1.09e-05,
        "meta_mean_motion_ddot": 0,
        "tle_line1": "1 29827U 99025DV  25346.96717325  .00001090  00000+0  51440-3 0  9999",
        "tle_line2": "2 29827  98.6023 338.1601 0025015 321.8122 104.8463 14.21687985978665"
      },
      "geometry": {
        "type": "Point",
        "coordinates": [
          -20.338759787964925,
          -6.804687568819185
        ]
      }
    }
  ]
}